{
  "type": "FeatureCollection",
  "features": [
    {
      "type": "Feature",
      "properties": {
        "norad_id": 2807,
        "name": "OPS 7218 (TRANSIT 16)",
        "group": "nnss",
        "lat": -1.573052096947211,
        "lon": -6.194060770042156,
        "alt_km": 1075.3384073751604,
        "timestamp": "2025-12-18T19:29:52.812868+00:00",
        "meta_object_name": "OPS 7218 (TRANSIT 16)",
        "meta_object_id": "1967-048A",
        "meta_epoch": "2025-12-18T02:03:45.261792",
        "meta_mean_motion": 13.50723319,
        "meta_eccentricity": 0.00221168,
        "meta_inclination": 89.673,
        "meta_ra_of_asc_node": 353.8389,
        "meta_arg_of_pericenter": 99.7882,
        "meta_mean_anomaly": 328.5399,
        "meta_ephemeris_type": 0,
        "meta_classification_type": "U",
        "meta_norad_cat_id": 2807,
        "meta_element_set_no": 999,
        "meta_rev_at_epoch": 88348,
        "meta_bstar": 0.0001595954,
        "meta_mean_motion_dot": 1.13e-06,
        "meta_mean_motion_ddot": 0,
        "tle_line1": "1 02807U 67048A   25352.08594053  .00000113  00000+0  15960-3 0  9991",
        "tle_line2": "2 02807  89.6730 353.8389 0022116  99.7882 328.5399 13.50723319883480"
      },
      "geometry": {
        "type": "Point",
        "coordinates": [
          -6.194060770042156,
          -1.573052096947211
        ]
      }
    },
    {
      "type": "Feature",
      "properties": {
        "norad_id": 2965,
        "name": "OPS 4947 (TRANSIT 17)",
        "group": "nnss",
        "lat": 57.54502166283641,
        "lon": -157.208776647184,
        "alt_km": 1056.3992433826343,
        "timestamp": "2025-12-18T19:29:52.812890+00:00",
        "meta_object_name": "OPS 4947 (TRANSIT 17)",
        "meta_object_id": "1967-092A",
        "meta_epoch": "2025-12-18T03:12:52.620768",
        "meta_mean_motion": 13.53454894,
        "meta_eccentricity": 0.00465388,
        "meta_inclination": 89.2492,
        "meta_ra_of_asc_node": 24.0243,
        "meta_arg_of_pericenter": 218.4116,
        "meta_mean_anomaly": 200.6577,
        "meta_ephemeris_type": 0,
        "meta_classification_type": "U",
        "meta_norad_cat_id": 2965,
        "meta_element_set_no": 999,
        "meta_rev_at_epoch": 87170,
        "meta_bstar": 0.00020683539,
        "meta_mean_motion_dot": 1.51e-06,
        "meta_mean_motion_ddot": 0,
        "tle_line1": "1 02965U 67092A   25352.13394237  .00000151  00000+0  20684-3 0  9994",
        "tle_line2": "2 02965  89.2492  24.0243 0046538 218.4116 200.6577 13.53454894871708"
      },
      "geometry": {
        "type": "Point",
        "coordinates": [
          -157.208776647184,
          57.54502166283641
        ]
      }
    },
    {
      "type": "Feature",
      "properties": {
        "norad_id": 3133,
        "name": "OPS 7034 (TRANSIT 18)",
        "group": "nnss",
        "lat": -51.796596343474945,
        "lon": 93.62007320449277,
        "alt_km": 1063.6037787758924,
        "timestamp": "2025-12-18T19:29:52.812904+00:00",
        "meta_object_name": "OPS 7034 (TRANSIT 18)",
        "meta_object_id": "1968-012A",
        "meta_epoch": "2025-12-18T06:28:02.678880",
        "meta_mean_motion": 13.51566954,
        "meta_eccentricity": 0.00743883,
        "meta_inclination": 90.0283,
        "meta_ra_of_asc_node": 273.6545,
        "meta_arg_of_pericenter": 153.1777,
        "meta_mean_anomaly": 317.519,
        "meta_ephemeris_type": 0,
        "meta_classification_type": "U",
        "meta_norad_cat_id": 3133,
        "meta_element_set_no": 999,
        "meta_rev_at_epoch": 56993,
        "meta_bstar": 0.00013795748,
        "meta_mean_motion_dot": 1.01e-06,
        "meta_mean_motion_ddot": 0,
        "tle_line1": "1 03133U 68012A   25352.26947545  .00000101  00000+0  13796-3 0  9996",
        "tle_line2": "2 03133  90.0283 273.6545 0074388 153.1777 317.5190 13.51566954569930"
      },
      "geometry": {
        "type": "Point",
        "coordinates": [
          93.62007320449277,
          -51.796596343474945
        ]
      }
    },
    {
      "type": "Feature",
      "properties": {
        "norad_id": 4507,
        "name": "NNSS 19 (TRANSIT 19)",
        "group": "nnss",
        "lat": -15.057021521511057,
        "lon": 54.536633137563655,
        "alt_km": 1049.5068519626084,
        "timestamp": "2025-12-18T19:29:52.812917+00:00",
        "meta_object_name": "NNSS 19 (TRANSIT 19)",
        "meta_object_id": "1970-067A",
        "meta_epoch": "2025-12-18T04:18:01.412064",
        "meta_mean_motion": 13.51316203,
        "meta_eccentricity": 0.01702968,
        "meta_inclination": 90.0052,
        "meta_ra_of_asc_node": 234.5377,
        "meta_arg_of_pericenter": 277.4674,
        "meta_mean_anomaly": 80.7157,
        "meta_ephemeris_type": 0,
        "meta_classification_type": "U",
        "meta_norad_cat_id": 4507,
        "meta_element_set_no": 999,
        "meta_rev_at_epoch": 72295,
        "meta_bstar": 0.00013378436,
        "meta_mean_motion_dot": 1.03e-06,
        "meta_mean_motion_ddot": 0,
        "tle_line1": "1 04507U 70067A   25352.17918301  .00000103  00000+0  13378-3 0  9991",
        "tle_line2": "2 04507  90.0052 234.5377 0170296 277.4674  80.7157 13.51316203722955"
      },
      "geometry": {
        "type": "Point",
        "coordinates": [
          54.536633137563655,
          -15.057021521511057
        ]
      }
    },
    {
      "type": "Feature",
      "properties": {
        "norad_id": 6909,
        "name": "NNSS 20 (TRANSIT 20)",
        "group": "nnss",
        "lat": -13.063932094582643,
        "lon": -105.07022998262052,
        "alt_km": 964.0570441808431,
        "timestamp": "2025-12-18T19:29:52.812928+00:00",
        "meta_object_name": "NNSS 20 (TRANSIT 20)",
        "meta_object_id": "1973-081A",
        "meta_epoch": "2025-12-18T05:33:08.837856",
        "meta_mean_motion": 13.71436962,
        "meta_eccentricity": 0.01565121,
        "meta_inclination": 89.8562,
        "meta_ra_of_asc_node": 254.9719,
        "meta_arg_of_pericenter": 62.0588,
        "meta_mean_anomaly": 299.6319,
        "meta_ephemeris_type": 0,
        "meta_classification_type": "U",
        "meta_norad_cat_id": 6909,
        "meta_element_set_no": 999,
        "meta_rev_at_epoch": 80436,
        "meta_bstar": 0.00023158763,
        "meta_mean_motion_dot": 2.39e-06,
        "meta_mean_motion_ddot": 0,
        "tle_line1": "1 06909U 73081A   25352.23135229  .00000239  00000+0  23159-3 0  9993",
        "tle_line2": "2 06909  89.8562 254.9719 0156512  62.0588 299.6319 13.71436962804362"
      },
      "geometry": {
        "type": "Point",
        "coordinates": [
          -105.07022998262052,
          -13.063932094582643
        ]
      }
    },
    {
      "type": "Feature",
      "properties": {
        "norad_id": 10457,
        "name": "TRANSAT",
        "group": "nnss",
        "lat": 29.929190842342674,
        "lon": -101.82070028878248,
        "alt_km": 1056.7131018300306,
        "timestamp": "2025-12-18T19:29:52.812938+00:00",
        "meta_object_name": "TRANSAT",
        "meta_object_id": "1977-106A",
        "meta_epoch": "2025-12-18T06:37:40.650816",
        "meta_mean_motion": 13.48944416,
        "meta_eccentricity": 0.00259204,
        "meta_inclination": 89.6481,
        "meta_ra_of_asc_node": 78.401,
        "meta_arg_of_pericenter": 173.5882,
        "meta_mean_anomaly": 253.8991,
        "meta_ephemeris_type": 0,
        "meta_classification_type": "U",
        "meta_norad_cat_id": 10457,
        "meta_element_set_no": 999,
        "meta_rev_at_epoch": 36818,
        "meta_bstar": 9.9680972e-05,
        "meta_mean_motion_dot": 7.3e-07,
        "meta_mean_motion_ddot": 0,
        "tle_line1": "1 10457U 77106A   25352.27616494  .00000073  00000+0  99681-4 0  9990",
        "tle_line2": "2 10457  89.6481  78.4010 0025920 173.5882 253.8991 13.48944416368184"
      },
      "geometry": {
        "type": "Point",
        "coordinates": [
          -101.82070028878248,
          29.929190842342674
        ]
      }
    },
    {
      "type": "Feature",
      "properties": {
        "norad_id": 12458,
        "name": "NOVA 1",
        "group": "nnss",
        "lat": -31.553518431054535,
        "lon": -88.61012731038444,
        "alt_km": 1184.6946336940746,
        "timestamp": "2025-12-18T19:29:52.812949+00:00",
        "meta_object_name": "NOVA 1",
        "meta_object_id": "1981-044A",
        "meta_epoch": "2025-12-18T05:48:57.295584",
        "meta_mean_motion": 13.23278969,
        "meta_eccentricity": 0.00158954,
        "meta_inclination": 89.8528,
        "meta_ra_of_asc_node": 91.3075,
        "meta_arg_of_pericenter": 90.4985,
        "meta_mean_anomaly": 286.5895,
        "meta_ephemeris_type": 0,
        "meta_classification_type": "U",
        "meta_norad_cat_id": 12458,
        "meta_element_set_no": 999,
        "meta_rev_at_epoch": 15259,
        "meta_bstar": 0.0001082078,
        "meta_mean_motion_dot": 5.5e-07,
        "meta_mean_motion_ddot": 0,
        "tle_line1": "1 12458U 81044A   25352.24232981  .00000055  00000+0  10821-3 0  9999",
        "tle_line2": "2 12458  89.8528  91.3075 0015895  90.4985 286.5895 13.23278969152595"
      },
      "geometry": {
        "type": "Point",
        "coordinates": [
          -88.61012731038444,
          -31.553518431054535
        ]
      }
    }
  ]
}